{"spaceTrack"{"CCSDS_OMM_VERS":"2.0","COMMENT":"GENERATED VIA SPACE-TRACK.ORG API","CREATION_DATE":"2021-01-26T06:26:10","ORIGINATOR":"18 SPCS","OBJECT_NAME":"STARLINK-1085","OBJECT_ID":"2020-001BB","CENTER_NAME":"EARTH","REF_FRAME":"TEME","TIME_SYSTEM":"UTC","MEAN_ELEMENT_THEORY":"SGP4","EPOCH":"2021-01-26T06:26:10","MEAN_MOTION":15.0643102,"ECCENTRICITY":0.0001014,"INCLINATION":53.001,"RA_OF_ASC_NODE":53.1317,"ARG_OF_PERICENTER":44.2047,"MEAN_ANOMALY":315.9022,"EPHEMERIS_TYPE":0,"CLASSIFICATION_TYPE":"U","NORAD_CAT_ID":44963,"ELEMENT_SET_NO":999,"REV_AT_EPOCH":5956,"BSTAR":0.00035051,"MEAN_MOTION_DOT":0.00004948,"MEAN_MOTION_DDOT":0,"SEMIMAJOR_AXIS":6925.253,"PERIOD":95.59,"APOAPSIS":547.821,"PERIAPSIS":546.416,"OBJECT_TYPE":"PAYLOAD","RCS_SIZE":"LARGE","COUNTRY_CODE":"US","LAUNCH_DATE":"2020-01-07","SITE":"AFETR","DECAY_DATE":null,"DECAYED":0,"FILE":2940260,"GP_ID":170412723,"TLE_LINE0":"0 STARLINK-1085","TLE_LINE1":"1 44963U 20001BB  21026.42531675  .00004948  00000-0  35051-3 0  9995","TLE_LINE2":"2 44963  53.0010  53.1317 0001014  44.2047 315.9022 15.06431020 59563"},"version":"v1.0","launch":"5eb87d3cffd86e000604b380","longitude":97,"latitude":26.90315625779229,"height_km":548.4382155476051,"velocity_kms":7.591343932286892,"id":"5eed7714096e5900069856bf"}
{"spaceTrack"{"CCSDS_OMM_VERS":"2.0","COMMENT":"GENERATED VIA SPACE-TRACK.ORG API","CREATION_DATE":"2021-01-26T06:26:10","ORIGINATOR":"18 SPCS","OBJECT_NAME":"STARLINK-1142","OBJECT_ID":"2020-006BB","CENTER_NAME":"EARTH","REF_FRAME":"TEME","TIME_SYSTEM":"UTC","MEAN_ELEMENT_THEORY":"SGP4","EPOCH":"2021-01-26T06:26:10","MEAN_MOTION":15.06409116,"ECCENTRICITY":0.0002389,"INCLINATION":53.0579,"RA_OF_ASC_NODE":352.8157,"ARG_OF_PERICENTER":61.5149,"MEAN_ANOMALY":298.608,"EPHEMERIS_TYPE":0,"CLASSIFICATION_TYPE":"U","NORAD_CAT_ID":45093,"ELEMENT_SET_NO":999,"REV_AT_EPOCH":5545,"BSTAR":0.000078658,"MEAN_MOTION_DOT":0.0000089,"MEAN_MOTION_DDOT":0,"SEMIMAJOR_AXIS":6925.321,"PERIOD":95.592,"APOAPSIS":548.84,"PERIAPSIS":545.531,"OBJECT_TYPE":"PAYLOAD","RCS_SIZE":"LARGE","COUNTRY_CODE":"US","LAUNCH_DATE":"2020-01-29","SITE":"AFETR","DECAY_DATE":null,"DECAYED":0,"FILE":2940260,"GP_ID":170411807,"TLE_LINE0":"0 STARLINK-1142","TLE_LINE1":"1 45093U 20006BB  21026.59166331  .00000890  00000-0  78658-4 0  9999","TLE_LINE2":"2 45093  53.0579 352.8157 0002389  61.5149 298.6080 15.06409116 55456"},"version":"v1.0","launch":"5eb87d3fffd86e000604b382","longitude":13,"latitude":-29.098168370028617,"height_km":556.2367398216948,"velocity_kms":7.5832533497427335,"id":"5eed7714096e5900069856c0"}
{"spaceTrack"{"CCSDS_OMM_VERS":"2.0","COMMENT":"GENERATED VIA SPACE-TRACK.ORG API","CREATION_DATE":"2021-01-26T06:26:10","ORIGINATOR":"18 SPCS","OBJECT_NAME":"STARLINK-1149","OBJECT_ID":"2020-006AM","CENTER_NAME":"EARTH","REF_FRAME":"TEME","TIME_SYSTEM":"UTC","MEAN_ELEMENT_THEORY":"SGP4","EPOCH":"2021-01-26T06:26:10","MEAN_MOTION":15.06342611,"ECCENTRICITY":0.0001382,"INCLINATION":53.0206,"RA_OF_ASC_NODE":14.3578,"ARG_OF_PERICENTER":79.1127,"MEAN_ANOMALY":281.0017,"EPHEMERIS_TYPE":0,"CLASSIFICATION_TYPE":"U","NORAD_CAT_ID":45079,"ELEMENT_SET_NO":999,"REV_AT_EPOCH":5511,"BSTAR":0.00024667,"MEAN_MOTION_DOT":0.00003389,"MEAN_MOTION_DDOT":0,"SEMIMAJOR_AXIS":6925.524,"PERIOD":95.596,"APOAPSIS":548.347,"PERIAPSIS":546.432,"OBJECT_TYPE":"PAYLOAD","RCS_SIZE":"LARGE","COUNTRY_CODE":"US","LAUNCH_DATE":"2020-01-29","SITE":"AFETR","DECAY_DATE":null,"DECAYED":0,"FILE":2940260,"GP_ID":170412735,"TLE_LINE0":"0 STARLINK-1149","TLE_LINE1":"1 45079U 20006AM  21026.24707989  .00003389  00000-0  24667-3 0  9991","TLE_LINE2":"2 45079  53.0206  14.3578 0001382  79.1127 281.0017 15.06342611 55112"},"version":"v1.0","launch":"5eb87d3fffd86e000604b382","longitude":8,"latitude":25.398165826654232,"height_km":547.7639822399033,"velocity_kms":7.591962722567215,"id":"5eed7714096e5900069856c1"}
{"spaceTrack"{"CCSDS_OMM_VERS":"2.0","COMMENT":"GENERATED VIA SPACE-TRACK.ORG API","CREATION_DATE":"2021-01-26T06:26:10","ORIGINATOR":"18 SPCS","OBJECT_NAME":"STARLINK-1166","OBJECT_ID":"2020-006S","CENTER_NAME":"EARTH","REF_FRAME":"TEME","TIME_SYSTEM":"UTC","MEAN_ELEMENT_THEORY":"SGP4","EPOCH":"2021-01-26T06:26:10","MEAN_MOTION":15.06398732,"ECCENTRICITY":0.0001473,"INCLINATION":53.0571,"RA_OF_ASC_NODE":33.5453,"ARG_OF_PERICENTER":56.7382,"MEAN_ANOMALY":303.3748,"EPHEMERIS_TYPE":0,"CLASSIFICATION_TYPE":"U","NORAD_CAT_ID":45060,"ELEMENT_SET_NO":999,"REV_AT_EPOCH":5487,"BSTAR":0.0000088668,"MEAN_MOTION_DOT":-0.00000149,"MEAN_MOTION_DDOT":0,"SEMIMAJOR_AXIS":6925.352,"PERIOD":95.592,"APOAPSIS":548.238,"PERIAPSIS":546.197,"OBJECT_TYPE":"PAYLOAD","RCS_SIZE":"LARGE","COUNTRY_CODE":"US","LAUNCH_DATE":"2020-01-29","SITE":"AFETR","DECAY_DATE":null,"DECAYED":0,"FILE":2940260,"GP_ID":170413453,"TLE_LINE0":"0 STARLINK-1166","TLE_LINE1":"1 45060U 20006S   21026.42948910 -.00000149  00000-0  88668-5 0  9997","TLE_LINE2":"2 45060  53.0571  33.5453 0001473  56.7382 303.3748 15.06398732 54873"},"version":"v1.0","launch":"5eb87d3fffd86e000604b382","longitude":65,"latitude":42.28693376804319,"height_km":550.8638338265118,"velocity_kms":7.591963465810373,"id":"5eed7714096e5900069856c2"}
{"spaceTrack"{"CCSDS_OMM_VERS":"2.0","COMMENT":"GENERATED VIA SPACE-TRACK.ORG API","CREATION_DATE":"2021-01-26T06:26:10","ORIGINATOR":"18 SPCS","OBJECT_NAME":"STARLINK-1181","OBJECT_ID":"2020-006AU","CENTER_NAME":"EARTH","REF_FRAME":"TEME","TIME_SYSTEM":"UTC","MEAN_ELEMENT_THEORY":"SGP4","EPOCH":"2021-01-26T06:26:10","MEAN_MOTION":15.06107994,"ECCENTRICITY":0.000118,"INCLINATION":53.0047,"RA_OF_ASC_NODE":353.9187,"ARG_OF_PERICENTER":47.5199,"MEAN_ANOMALY":312.5888,"EPHEMERIS_TYPE":0,"CLASSIFICATION_TYPE":"U","NORAD_CAT_ID":45086,"ELEMENT_SET_NO":999,"REV_AT_EPOCH":5536,"BSTAR":0.00018345,"MEAN_MOTION_DOT":0.00002431,"MEAN_MOTION_DDOT":0,"SEMIMAJOR_AXIS":6926.244,"PERIOD":95.611,"APOAPSIS":548.926,"PERIAPSIS":547.291,"OBJECT_TYPE":"PAYLOAD","RCS_SIZE":"LARGE","COUNTRY_CODE":"US","LAUNCH_DATE":"2020-01-29","SITE":"AFETR","DECAY_DATE":null,"DECAYED":0,"FILE":2940260,"GP_ID":170412996,"TLE_LINE0":"0 STARLINK-1181","TLE_LINE1":"1 45086U 20006AU  21026.29998434  .00002431  00000-0  18345-3 0  9994","TLE_LINE2":"2 45086  53.0047 353.9187 0001180  47.5199 312.5888 15.06107994 55361"},"version":"v1.0","launch":"5eb87d3fffd86e000604b382","longitude":92,"latitude":50.70956219178441,"height_km":553.619433331768,"velocity_kms":7.591323574196789,"id":"5eed7714096e5900069856c3"}
{"spaceTrack"{"CCSDS_OMM_VERS":"2.0","COMMENT":"GENERATED VIA SPACE-TRACK.ORG API","CREATION_DATE":"2021-01-26T06:26:10","ORIGINATOR":"18 SPCS","OBJECT_NAME":"STARLINK-1215","OBJECT_ID":"2020-012AZ","CENTER_NAME":"EARTH","REF_FRAME":"TEME","TIME_SYSTEM":"UTC","MEAN_ELEMENT_THEORY":"SGP4","EPOCH":"2021-01-26T06:26:10","MEAN_MOTION":15.06402441,"ECCENTRICITY":0.000295,"INCLINATION":53.0587,"RA_OF_ASC_NODE":113.2041,"ARG_OF_PERICENTER":78.4894,"MEAN_ANOMALY":281.6426,"EPHEMERIS_TYPE":0,"CLASSIFICATION_TYPE":"U","NORAD_CAT_ID":45225,"ELEMENT_SET_NO":999,"REV_AT_EPOCH":5288,"BSTAR":0.000083307,"MEAN_MOTION_DOT":0.00000959,"MEAN_MOTION_DDOT":0,"SEMIMAJOR_AXIS":6925.341,"PERIOD":95.592,"APOAPSIS":549.249,"PERIAPSIS":545.163,"OBJECT_TYPE":"PAYLOAD","RCS_SIZE":"LARGE","COUNTRY_CODE":"US","LAUNCH_DATE":"2020-02-17","SITE":"AFETR","DECAY_DATE":null,"DECAYED":0,"FILE":2939821,"GP_ID":170384350,"TLE_LINE0":"0 STARLINK-1215","TLE_LINE1":"1 45225U 20012AZ  21026.50689620  .00000959  00000-0  83307-4 0  9998","TLE_LINE2":"2 45225  53.0587 113.2041 0002950  78.4894 281.6426 15.06402441 52885"},"version":"v1.0","launch":"5eb87d41ffd86e000604b383","longitude":151,"latitude":45.53845093430098,"height_km":550.0606710793118,"velocity_kms":7.593571811333922,"id":"5eed7714096e5900069856c4"}
{"spaceTrack"{"CCSDS_OMM_VERS":"2.0","COMMENT":"GENERATED VIA SPACE-TRACK.ORG API","CREATION_DATE":"2021-01-26T06:26:10","ORIGINATOR":"18 SPCS","OBJECT_NAME":"STARLINK-1154","OBJECT_ID":"2020-012W","CENTER_NAME":"EARTH","REF_FRAME":"TEME","TIME_SYSTEM":"UTC","MEAN_ELEMENT_THEORY":"SGP4","EPOCH":"2021-01-26T06:26:10","MEAN_MOTION":15.06395282,"ECCENTRICITY":0.0001263,"INCLINATION":53.0595,"RA_OF_ASC_NODE":132.8046,"ARG_OF_PERICENTER":77.6338,"MEAN_ANOMALY":282.4792,"EPHEMERIS_TYPE":0,"CLASSIFICATION_TYPE":"U","NORAD_CAT_ID":45198,"ELEMENT_SET_NO":999,"REV_AT_EPOCH":5349,"BSTAR":-0.00000994,"MEAN_MOTION_DOT":-0.00000429,"MEAN_MOTION_DDOT":0,"SEMIMAJOR_AXIS":6925.363,"PERIOD":95.592,"APOAPSIS":548.103,"PERIAPSIS":546.353,"OBJECT_TYPE":"PAYLOAD","RCS_SIZE":"LARGE","COUNTRY_CODE":"US","LAUNCH_DATE":"2020-02-17","SITE":"AFETR","DECAY_DATE":null,"DECAYED":0,"FILE":2940260,"GP_ID":170413008,"TLE_LINE0":"0 STARLINK-1154","TLE_LINE1":"1 45198U 20012W   21026.59351379 -.00000429  00000-0 -99400-5 0  9999","TLE_LINE2":"2 45198  53.0595 132.8046 0001263  77.6338 282.4792 15.06395282 53492"},"version":"v1.0","launch":"5eb87d41ffd86e000604b383","longitude":93,"latitude":-36.03889849694466,"height_km":559.2629872349562,"velocity_kms":7.581384097928966,"id":"5eed7714096e5900069856c5"}
